{
  "fetched_at": "2026-05-27T02:12:54.575351+00:00",
  "satellites": {
    "57166": {
      "name": "Meteor M2-3",
      "tle_line1": "1 57166U 23091A   26146.59819405 -.00000007  00000+0  15672-4 0  9992",
      "tle_line2": "2 57166  98.6094 202.0166 0003122 219.5307 140.5645 14.24044606151446"
    },
    "59051": {
      "name": "Meteor M2-4",
      "tle_line1": "1 59051U 24039A   26146.58841038 -.00000006  00000+0  17043-4 0  9999",
      "tle_line2": "2 59051  98.7000 106.1596 0006130 226.4943 133.5726 14.22426973116199"
    },
    "38771": {
      "name": "MetOp-B",
      "tle_line1": "1 38771U 12049A   26146.57944194  .00000096  00000+0  63695-4 0  9991",
      "tle_line2": "2 38771  98.6517 198.5084 0003269  66.3899 293.7621 14.21425853710193"
    },
    "43689": {
      "name": "MetOp-C",
      "tle_line1": "1 43689U 18087A   26146.59984353  .00000094  00000+0  62613-4 0  9993",
      "tle_line2": "2 43689  98.6655 206.5967 0000852 149.7370 210.3857 14.21505361391762"
    },
    "60543": {
      "name": "Arctic Weather Satellite",
      "tle_line1": "1 60543U 24149CD  26146.45952037  .00000858  00000+0  95013-4 0  9994",
      "tle_line2": "2 60543  97.6804 217.5452 0002737 146.3293 213.8099 14.89789333 96065"
    }
  }
}